STARLINK-31495          
1 59313U 24056T   26068.46122597 -.00001484  00000+0 -44413-4 0  9994
2 59313  43.0007 224.6995 0001284 269.6644  90.4060 15.27571993111209
TEVEL2-8                
1 63239U 25052AF  26068.66815442  .00019130  00000+0  69304-3 0  9993
2 63239  97.4055 324.2923 0008031 124.9191 235.2804 15.28392908 54807
